{
  "type": "FeatureCollection",
  "features": [
    {
      "type": "Feature",
      "properties": {
        "norad_id": 34492,
        "name": "IRIDIUM 33 DEB",
        "group": "iridium-33-debris",
        "lat": 53.62262979793839,
        "lon": 151.14195269317688,
        "alt_km": 873.2423318287965,
        "timestamp": "2025-12-09T11:33:55.185890+00:00",
        "meta_object_name": "IRIDIUM 33 DEB",
        "meta_object_id": "1997-051GH",
        "meta_epoch": "2025-12-07T23:50:44.784960",
        "meta_mean_motion": 14.25534668,
        "meta_eccentricity": 0.0189621,
        "meta_inclination": 86.4724,
        "meta_ra_of_asc_node": 336.5463,
        "meta_arg_of_pericenter": 253.6464,
        "meta_mean_anomaly": 161.0806,
        "meta_ephemeris_type": 0,
        "meta_classification_type": "U",
        "meta_norad_cat_id": 34492,
        "meta_element_set_no": 999,
        "meta_rev_at_epoch": 84991,
        "meta_bstar": 0.0068533726,
        "meta_mean_motion_dot": 0.00019616,
        "meta_mean_motion_ddot": 0,
        "tle_line1": "1 34492U 97051GH  25341.99357390  .00019616  00000+0  68534-2 0  9994",
        "tle_line2": "2 34492  86.4724 336.5463 0189621 253.6464 161.0806 14.25534668849919"
      },
      "geometry": {
        "type": "Point",
        "coordinates": [
          151.14195269317688,
          53.62262979793839
        ]
      }
    },
    {
      "type": "Feature",
      "properties": {
        "norad_id": 34497,
        "name": "IRIDIUM 33 DEB",
        "group": "iridium-33-debris",
        "lat": -14.729916964488138,
        "lon": 52.81304418690422,
        "alt_km": 748.3376009706963,
        "timestamp": "2025-12-09T11:33:55.185901+00:00",
        "meta_object_name": "IRIDIUM 33 DEB",
        "meta_object_id": "1997-051GN",
        "meta_epoch": "2025-12-08T05:36:30.454848",
        "meta_mean_motion": 14.27433857,
        "meta_eccentricity": 0.00792669,
        "meta_inclination": 86.2781,
        "meta_ra_of_asc_node": 54.3266,
        "meta_arg_of_pericenter": 354.2573,
        "meta_mean_anomaly": 60.9681,
        "meta_ephemeris_type": 0,
        "meta_classification_type": "U",
        "meta_norad_cat_id": 34497,
        "meta_element_set_no": 999,
        "meta_rev_at_epoch": 86819,
        "meta_bstar": 0.00099948943,
        "meta_mean_motion_dot": 2.553e-05,
        "meta_mean_motion_ddot": 0,
        "tle_line1": "1 34497U 97051GN  25342.23368582  .00002553  00000+0  99949-3 0  9999",
        "tle_line2": "2 34497  86.2781  54.3266 0079266 354.2573  60.9681 14.27433857868192"
      },
      "geometry": {
        "type": "Point",
        "coordinates": [
          52.81304418690422,
          -14.729916964488138
        ]
      }
    },
    {
      "type": "Feature",
      "properties": {
        "norad_id": 34508,
        "name": "IRIDIUM 33 DEB",
        "group": "iridium-33-debris",
        "lat": 14.849625561468173,
        "lon": 104.98848268380404,
        "alt_km": 810.8758038971728,
        "timestamp": "2025-12-09T11:33:55.185911+00:00",
        "meta_object_name": "IRIDIUM 33 DEB",
        "meta_object_id": "1997-051GZ",
        "meta_epoch": "2025-12-08T20:28:07.821120",
        "meta_mean_motion": 14.38371181,
        "meta_eccentricity": 0.0065865,
        "meta_inclination": 86.3703,
        "meta_ra_of_asc_node": 104.2908,
        "meta_arg_of_pericenter": 185.485,
        "meta_mean_anomaly": 174.5635,
        "meta_ephemeris_type": 0,
        "meta_classification_type": "U",
        "meta_norad_cat_id": 34508,
        "meta_element_set_no": 999,
        "meta_rev_at_epoch": 87253,
        "meta_bstar": 0.0019764,
        "meta_mean_motion_dot": 6.195e-05,
        "meta_mean_motion_ddot": 0,
        "tle_line1": "1 34508U 97051GZ  25342.85286830  .00006195  00000+0  19764-2 0  9997",
        "tle_line2": "2 34508  86.3703 104.2908 0065865 185.4850 174.5635 14.38371181872537"
      },
      "geometry": {
        "type": "Point",
        "coordinates": [
          104.98848268380404,
          14.849625561468173
        ]
      }
    },
    {
      "type": "Feature",
      "properties": {
        "norad_id": 34521,
        "name": "IRIDIUM 33 DEB",
        "group": "iridium-33-debris",
        "lat": -80.18634943021203,
        "lon": -126.54857460991461,
        "alt_km": 689.1197708407626,
        "timestamp": "2025-12-09T11:33:55.185921+00:00",
        "meta_object_name": "IRIDIUM 33 DEB",
        "meta_object_id": "1997-051HN",
        "meta_epoch": "2025-12-09T03:48:43.130592",
        "meta_mean_motion": 14.63316312,
        "meta_eccentricity": 0.0001218,
        "meta_inclination": 86.3799,
        "meta_ra_of_asc_node": 32.1245,
        "meta_arg_of_pericenter": 240.0479,
        "meta_mean_anomaly": 120.0612,
        "meta_ephemeris_type": 0,
        "meta_classification_type": "U",
        "meta_norad_cat_id": 34521,
        "meta_element_set_no": 999,
        "meta_rev_at_epoch": 88420,
        "meta_bstar": 0.0010832,
        "meta_mean_motion_dot": 5.611e-05,
        "meta_mean_motion_ddot": 0,
        "tle_line1": "1 34521U 97051HN  25343.15883253  .00005611  00000+0  10832-2 0  9997",
        "tle_line2": "2 34521  86.3799  32.1245 0001218 240.0479 120.0612 14.63316312884208"
      },
      "geometry": {
        "type": "Point",
        "coordinates": [
          -126.54857460991461,
          -80.18634943021203
        ]
      }
    },
    {
      "type": "Feature",
      "properties": {
        "norad_id": 34525,
        "name": "IRIDIUM 33 DEB",
        "group": "iridium-33-debris",
        "lat": -40.74087327383374,
        "lon": 45.102369998908735,
        "alt_km": 759.328889598225,
        "timestamp": "2025-12-09T11:33:55.185932+00:00",
        "meta_object_name": "IRIDIUM 33 DEB",
        "meta_object_id": "1997-051HS",
        "meta_epoch": "2025-12-08T10:52:50.630592",
        "meta_mean_motion": 14.42890463,
        "meta_eccentricity": 0.00066346,
        "meta_inclination": 86.373,
        "meta_ra_of_asc_node": 48.6732,
        "meta_arg_of_pericenter": 105.0702,
        "meta_mean_anomaly": 275.0516,
        "meta_ephemeris_type": 0,
        "meta_classification_type": "U",
        "meta_norad_cat_id": 34525,
        "meta_element_set_no": 999,
        "meta_rev_at_epoch": 88026,
        "meta_bstar": 0.00067150553,
        "meta_mean_motion_dot": 2.262e-05,
        "meta_mean_motion_ddot": 0,
        "tle_line1": "1 34525U 97051HS  25342.45336378  .00002262  00000+0  67151-3 0  9990",
        "tle_line2": "2 34525  86.3730  48.6732 0006634 105.0702 275.0516 14.42890463880263"
      },
      "geometry": {
        "type": "Point",
        "coordinates": [
          45.102369998908735,
          -40.74087327383374
        ]
      }
    },
    {
      "type": "Feature",
      "properties": {
        "norad_id": 34529,
        "name": "IRIDIUM 33 DEB",
        "group": "iridium-33-debris",
        "lat": -60.76257630050422,
        "lon": -136.67717383056674,
        "alt_km": 761.8412240729012,
        "timestamp": "2025-12-09T11:33:55.185942+00:00",
        "meta_object_name": "IRIDIUM 33 DEB",
        "meta_object_id": "1997-051HW",
        "meta_epoch": "2025-12-09T03:46:56.685792",
        "meta_mean_motion": 14.40611183,
        "meta_eccentricity": 0.0004351,
        "meta_inclination": 86.3644,
        "meta_ra_of_asc_node": 36.9388,
        "meta_arg_of_pericenter": 189.2573,
        "meta_mean_anomaly": 170.8546,
        "meta_ephemeris_type": 0,
        "meta_classification_type": "U",
        "meta_norad_cat_id": 34529,
        "meta_element_set_no": 999,
        "meta_rev_at_epoch": 88090,
        "meta_bstar": 0.00017454,
        "meta_mean_motion_dot": 5.76e-06,
        "meta_mean_motion_ddot": 0,
        "tle_line1": "1 34529U 97051HW  25343.15760053  .00000576  00000+0  17454-3 0  9990",
        "tle_line2": "2 34529  86.3644  36.9388 0004351 189.2573 170.8546 14.40611183880906"
      },
      "geometry": {
        "type": "Point",
        "coordinates": [
          -136.67717383056674,
          -60.76257630050422
        ]
      }
    },
    {
      "type": "Feature",
      "properties": {
        "norad_id": 34538,
        "name": "IRIDIUM 33 DEB",
        "group": "iridium-33-debris",
        "lat": 54.434022082970344,
        "lon": 12.207209999217243,
        "alt_km": 738.8180889063133,
        "timestamp": "2025-12-09T11:33:55.185952+00:00",
        "meta_object_name": "IRIDIUM 33 DEB",
        "meta_object_id": "1997-051JF",
        "meta_epoch": "2025-12-09T01:27:44.676000",
        "meta_mean_motion": 14.42613154,
        "meta_eccentricity": 0.0033259,
        "meta_inclination": 86.2774,
        "meta_ra_of_asc_node": 7.1673,
        "meta_arg_of_pericenter": 340.491,
        "meta_mean_anomaly": 49.0054,
        "meta_ephemeris_type": 0,
        "meta_classification_type": "U",
        "meta_norad_cat_id": 34538,
        "meta_element_set_no": 999,
        "meta_rev_at_epoch": 87703,
        "meta_bstar": 0.0011231,
        "meta_mean_motion_dot": 3.773e-05,
        "meta_mean_motion_ddot": 0,
        "tle_line1": "1 34538U 97051JF  25343.06093375  .00003773  00000+0  11231-2 0  9994",
        "tle_line2": "2 34538  86.2774   7.1673 0033259 340.4910  49.0054 14.42613154877034"
      },
      "geometry": {
        "type": "Point",
        "coordinates": [
          12.207209999217243,
          54.434022082970344
        ]
      }
    }
  ]
}